STARLINK-4546           
1 53422U 22097AL  26001.36555889  .00001827  00000+0  13284-3 0  9992
2 53422  53.2174  56.3516 0001101  85.6452 274.4666 15.08840200188481
STARLINK-4539           
1 53423U 22097AM  26001.37755021  .00001722  00000+0  12622-3 0  9993
2 53423  53.2186  56.3067 0001170  88.8462 271.2664 15.08841479188468
STARLINK-4532           
1 53424U 22097AN  26001.55691232 -.00001247  00000+0 -60277-4 0  9991
2 53424  53.2195  55.4893 0001234 114.5426 245.5695 15.08836803188513
STARLINK-4531           
1 53425U 22097AP  26001.43547507 -.00000768  00000+0 -30177-4 0  9997
2 53425  53.2179  56.0347 0001307  91.0826 269.0316 15.08838401188462
STARLINK-4558           
1 53426U 22097AQ  26001.40331234  .00001918  00000+0  13857-3 0  9994
2 53426  53.2182  46.3376 0001513  93.4751 266.6414 15.08832396188620
STARLINK-4543           
1 53429U 22097AT  26001.53209111 -.00000295  00000+0 -41750-6 0  9994
2 53429  53.2189  45.7180 0001266  94.7646 265.3491 15.08835916188642
STARLINK-4538           
1 53430U 22097AU  26001.52472756  .00001014  00000+0  81768-4 0  9991
2 53430  53.2194  45.6719 0001636 106.4920 253.6252 15.08839713188626
STARLINK-4548           
1 53431U 22097AV  26001.48418886  .00000052  00000+0  21330-4 0  9991
2 53431  53.2184  45.4328 0001282  92.5674 267.5465 15.08836209188647
STARLINK-4557           
1 53432U 22097AW  26001.49892929  .00001230  00000+0  95343-4 0  9991
2 53432  53.2175  45.5140 0001386  87.2793 272.8358 15.08836764188645
STARLINK-4549           
1 53433U 22097AX  26001.38855084 -.00000962  00000+0 -42366-4 0  9991
2 53433  53.2201  46.2443 0001446  91.0198 269.0960 15.08841820188601
STARLINK-4498           
1 53434U 22097AY  26001.49524191  .00000776  00000+0  66847-4 0  9997
2 53434  53.2178  45.4900 0001219  87.4330 272.6801 15.08838222188650
STARLINK-4542           
1 53435U 22097AZ  26001.50261105  .00000974  00000+0  79258-4 0  9993
2 53435  53.2176  45.5359 0001344  84.4703 275.6443 15.08839011188627
STARLINK-4527           
1 53436U 22097BA  26001.49155269  .00001103  00000+0  87354-4 0  9996
2 53436  53.2173  45.4692 0001448  93.8064 266.3093 15.08845748188647
STARLINK-4526           
1 53438U 22097BC  26001.35538954 -.00001030  00000+0 -46639-4 0  9991
2 53438  53.2184  46.0409 0001340  96.4829 263.6316 15.08841638188634
STARLINK-4519           
1 53439U 22097BD  26001.49988852  .00000621  00000+0  57103-4 0  9994
2 53439  53.2179  45.5151 0001373  87.2446 272.8704 15.08835600188653
STARLINK-4415           
1 53465U 22099A   26001.30006726  .00002563  00000+0  18177-3 0  9990
2 53465  97.6009 124.7928 0000293  64.1898 295.9359 15.05653519185892
