[{"OBJECT_NAME":"STARLINK-4546","OBJECT_ID":"2022-097AL","EPOCH":"2026-01-01T08:46:24.288096","MEAN_MOTION":15.088402,"ECCENTRICITY":0.00011012,"INCLINATION":53.2174,"RA_OF_ASC_NODE":56.3516,"ARG_OF_PERICENTER":85.6452,"MEAN_ANOMALY":274.4666,"EPHEMERIS_TYPE":0,"CLASSIFICATION_TYPE":"U","NORAD_CAT_ID":53422,"ELEMENT_SET_NO":999,"REV_AT_EPOCH":18848,"BSTAR":0.00013283857,"MEAN_MOTION_DOT":1.827e-5,"MEAN_MOTION_DDOT":0},{"OBJECT_NAME":"STARLINK-4539","OBJECT_ID":"2022-097AM","EPOCH":"2026-01-01T09:03:40.338144","MEAN_MOTION":15.08841479,"ECCENTRICITY":0.00011704,"INCLINATION":53.2186,"RA_OF_ASC_NODE":56.3067,"ARG_OF_PERICENTER":88.8462,"MEAN_ANOMALY":271.2664,"EPHEMERIS_TYPE":0,"CLASSIFICATION_TYPE":"U","NORAD_CAT_ID":53423,"ELEMENT_SET_NO":999,"REV_AT_EPOCH":18846,"BSTAR":0.00012621539,"MEAN_MOTION_DOT":1.722e-5,"MEAN_MOTION_DDOT":0},{"OBJECT_NAME":"STARLINK-4532","OBJECT_ID":"2022-097AN","EPOCH":"2026-01-01T13:21:57.224448","MEAN_MOTION":15.08836803,"ECCENTRICITY":0.00012343,"INCLINATION":53.2195,"RA_OF_ASC_NODE":55.4893,"ARG_OF_PERICENTER":114.5426,"MEAN_ANOMALY":245.5695,"EPHEMERIS_TYPE":0,"CLASSIFICATION_TYPE":"U","NORAD_CAT_ID":53424,"ELEMENT_SET_NO":999,"REV_AT_EPOCH":18851,"BSTAR":-6.0277346e-5,"MEAN_MOTION_DOT":-1.247e-5,"MEAN_MOTION_DDOT":0},{"OBJECT_NAME":"STARLINK-4531","OBJECT_ID":"2022-097AP","EPOCH":"2026-01-01T10:27:05.046048","MEAN_MOTION":15.08838401,"ECCENTRICITY":0.00013072,"INCLINATION":53.2179,"RA_OF_ASC_NODE":56.0347,"ARG_OF_PERICENTER":91.0826,"MEAN_ANOMALY":269.0316,"EPHEMERIS_TYPE":0,"CLASSIFICATION_TYPE":"U","NORAD_CAT_ID":53425,"ELEMENT_SET_NO":999,"REV_AT_EPOCH":18846,"BSTAR":-3.0176683e-5,"MEAN_MOTION_DOT":-7.68e-6,"MEAN_MOTION_DDOT":0},{"OBJECT_NAME":"STARLINK-4558","OBJECT_ID":"2022-097AQ","EPOCH":"2026-01-01T09:40:46.186176","MEAN_MOTION":15.08832396,"ECCENTRICITY":0.00015135,"INCLINATION":53.2182,"RA_OF_ASC_NODE":46.3376,"ARG_OF_PERICENTER":93.4751,"MEAN_ANOMALY":266.6414,"EPHEMERIS_TYPE":0,"CLASSIFICATION_TYPE":"U","NORAD_CAT_ID":53426,"ELEMENT_SET_NO":999,"REV_AT_EPOCH":18862,"BSTAR":0.00013856864,"MEAN_MOTION_DOT":1.918e-5,"MEAN_MOTION_DDOT":0},{"OBJECT_NAME":"STARLINK-4543","OBJECT_ID":"2022-097AT","EPOCH":"2026-01-01T12:46:12.671904","MEAN_MOTION":15.08835916,"ECCENTRICITY":0.0001266,"INCLINATION":53.2189,"RA_OF_ASC_NODE":45.718,"ARG_OF_PERICENTER":94.7646,"MEAN_ANOMALY":265.3491,"EPHEMERIS_TYPE":0,"CLASSIFICATION_TYPE":"U","NORAD_CAT_ID":53429,"ELEMENT_SET_NO":999,"REV_AT_EPOCH":18864,"BSTAR":-4.17502e-7,"MEAN_MOTION_DOT":-2.95e-6,"MEAN_MOTION_DDOT":0},{"OBJECT_NAME":"STARLINK-4538","OBJECT_ID":"2022-097AU","EPOCH":"2026-01-01T12:35:36.461184","MEAN_MOTION":15.08839713,"ECCENTRICITY":0.00016361,"INCLINATION":53.2194,"RA_OF_ASC_NODE":45.6719,"ARG_OF_PERICENTER":106.492,"MEAN_ANOMALY":253.6252,"EPHEMERIS_TYPE":0,"CLASSIFICATION_TYPE":"U","NORAD_CAT_ID":53430,"ELEMENT_SET_NO":999,"REV_AT_EPOCH":18862,"BSTAR":8.1767874e-5,"MEAN_MOTION_DOT":1.014e-5,"MEAN_MOTION_DDOT":0},{"OBJECT_NAME":"STARLINK-4548","OBJECT_ID":"2022-097AV","EPOCH":"2026-01-01T11:37:13.917504","MEAN_MOTION":15.08836209,"ECCENTRICITY":0.00012823,"INCLINATION":53.2184,"RA_OF_ASC_NODE":45.4328,"ARG_OF_PERICENTER":92.5674,"MEAN_ANOMALY":267.5465,"EPHEMERIS_TYPE":0,"CLASSIFICATION_TYPE":"U","NORAD_CAT_ID":53431,"ELEMENT_SET_NO":999,"REV_AT_EPOCH":18864,"BSTAR":2.1329745e-5,"MEAN_MOTION_DOT":5.2e-7,"MEAN_MOTION_DDOT":0},{"OBJECT_NAME":"STARLINK-4557","OBJECT_ID":"2022-097AW","EPOCH":"2026-01-01T11:58:27.490656","MEAN_MOTION":15.08836764,"ECCENTRICITY":0.00013862,"INCLINATION":53.2175,"RA_OF_ASC_NODE":45.514,"ARG_OF_PERICENTER":87.2793,"MEAN_ANOMALY":272.8358,"EPHEMERIS_TYPE":0,"CLASSIFICATION_TYPE":"U","NORAD_CAT_ID":53432,"ELEMENT_SET_NO":999,"REV_AT_EPOCH":18864,"BSTAR":9.5343446e-5,"MEAN_MOTION_DOT":1.23e-5,"MEAN_MOTION_DDOT":0},{"OBJECT_NAME":"STARLINK-4549","OBJECT_ID":"2022-097AX","EPOCH":"2026-01-01T09:19:30.792576","MEAN_MOTION":15.0884182,"ECCENTRICITY":0.00014463,"INCLINATION":53.2201,"RA_OF_ASC_NODE":46.2443,"ARG_OF_PERICENTER":91.0198,"MEAN_ANOMALY":269.096,"EPHEMERIS_TYPE":0,"CLASSIFICATION_TYPE":"U","NORAD_CAT_ID":53433,"ELEMENT_SET_NO":999,"REV_AT_EPOCH":18860,"BSTAR":-4.2365574e-5,"MEAN_MOTION_DOT":-9.62e-6,"MEAN_MOTION_DDOT":0},{"OBJECT_NAME":"STARLINK-4498","OBJECT_ID":"2022-097AY","EPOCH":"2026-01-01T11:53:08.901024","MEAN_MOTION":15.08838222,"ECCENTRICITY":0.00012197,"INCLINATION":53.2178,"RA_OF_ASC_NODE":45.49,"ARG_OF_PERICENTER":87.433,"MEAN_ANOMALY":272.6801,"EPHEMERIS_TYPE":0,"CLASSIFICATION_TYPE":"U","NORAD_CAT_ID":53434,"ELEMENT_SET_NO":999,"REV_AT_EPOCH":18865,"BSTAR":6.6846789e-5,"MEAN_MOTION_DOT":7.76e-6,"MEAN_MOTION_DDOT":0},{"OBJECT_NAME":"STARLINK-4542","OBJECT_ID":"2022-097AZ","EPOCH":"2026-01-01T12:03:45.594720","MEAN_MOTION":15.08839011,"ECCENTRICITY":0.00013448,"INCLINATION":53.2176,"RA_OF_ASC_NODE":45.5359,"ARG_OF_PERICENTER":84.4703,"MEAN_ANOMALY":275.6443,"EPHEMERIS_TYPE":0,"CLASSIFICATION_TYPE":"U","NORAD_CAT_ID":53435,"ELEMENT_SET_NO":999,"REV_AT_EPOCH":18862,"BSTAR":7.9257544e-5,"MEAN_MOTION_DOT":9.74e-6,"MEAN_MOTION_DDOT":0},{"OBJECT_NAME":"STARLINK-4527","OBJECT_ID":"2022-097BA","EPOCH":"2026-01-01T11:47:50.152416","MEAN_MOTION":15.08845748,"ECCENTRICITY":0.00014482,"INCLINATION":53.2173,"RA_OF_ASC_NODE":45.4692,"ARG_OF_PERICENTER":93.8064,"MEAN_ANOMALY":266.3093,"EPHEMERIS_TYPE":0,"CLASSIFICATION_TYPE":"U","NORAD_CAT_ID":53436,"ELEMENT_SET_NO":999,"REV_AT_EPOCH":18864,"BSTAR":8.73537e-5,"MEAN_MOTION_DOT":1.103e-5,"MEAN_MOTION_DDOT":0},{"OBJECT_NAME":"STARLINK-4526","OBJECT_ID":"2022-097BC","EPOCH":"2026-01-01T08:31:45.656256","MEAN_MOTION":15.08841638,"ECCENTRICITY":0.00013405,"INCLINATION":53.2184,"RA_OF_ASC_NODE":46.0409,"ARG_OF_PERICENTER":96.4829,"MEAN_ANOMALY":263.6316,"EPHEMERIS_TYPE":0,"CLASSIFICATION_TYPE":"U","NORAD_CAT_ID":53438,"ELEMENT_SET_NO":999,"REV_AT_EPOCH":18863,"BSTAR":-4.6639279e-5,"MEAN_MOTION_DOT":-1.03e-5,"MEAN_MOTION_DDOT":0},{"OBJECT_NAME":"STARLINK-4519","OBJECT_ID":"2022-097BD","EPOCH":"2026-01-01T11:59:50.368128","MEAN_MOTION":15.088356,"ECCENTRICITY":0.00013737,"INCLINATION":53.2179,"RA_OF_ASC_NODE":45.5151,"ARG_OF_PERICENTER":87.2446,"MEAN_ANOMALY":272.8704,"EPHEMERIS_TYPE":0,"CLASSIFICATION_TYPE":"U","NORAD_CAT_ID":53439,"ELEMENT_SET_NO":999,"REV_AT_EPOCH":18865,"BSTAR":5.7103031e-5,"MEAN_MOTION_DOT":6.21e-6,"MEAN_MOTION_DDOT":0},{"OBJECT_NAME":"STARLINK-4415","OBJECT_ID":"2022-099A","EPOCH":"2026-01-01T07:12:05.811264","MEAN_MOTION":15.05653519,"ECCENTRICITY":2.935e-5,"INCLINATION":97.6009,"RA_OF_ASC_NODE":124.7928,"ARG_OF_PERICENTER":64.1898,"MEAN_ANOMALY":295.9359,"EPHEMERIS_TYPE":0,"CLASSIFICATION_TYPE":"U","NORAD_CAT_ID":53465,"ELEMENT_SET_NO":999,"REV_AT_EPOCH":18589,"BSTAR":0.00018176833,"MEAN_MOTION_DOT":2.563e-5,"MEAN_MOTION_DDOT":0}]
